CCSDS_OMM_VERS,COMMENT,CREATION_DATE,ORIGINATOR,OBJECT_NAME,OBJECT_ID,CENTER_NAME,REF_FRAME,TIME_SYSTEM,MEAN_ELEMENT_THEORY,EPOCH,MEAN_MOTION,ECCENTRICITY,INCLINATION,RA_OF_ASC_NODE,ARG_OF_PERICENTER,MEAN_ANOMALY,EPHEMERIS_TYPE,CLASSIFICATION_TYPE,NORAD_CAT_ID,ELEMENT_SET_NO,REV_AT_EPOCH,BSTAR,MEAN_MOTION_DOT,MEAN_MOTION_DDOT,SEMIMAJOR_AXIS,PERIOD,APOAPSIS,PERIAPSIS,OBJECT_TYPE,RCS_SIZE,COUNTRY_CODE,LAUNCH_DATE,SITE,DECAY_DATE,FILE,GP_ID,TLE_LINE0,TLE_LINE1,TLE_LINE2,NORAD_KEY,JCAT,DeepCat,Satcat,Piece,Active,Type,Name,LDate,Parent,Owner,State,SDate,ExpandedStatus,DDate,ODate,Period,Perigee,PF,Apogee,AF,Inc,IF,OpOrbit,SATCAT_KEY
3.0,GENERATED VIA SPACE-TRACK.ORG API,2026-05-06T14:56:52,18 SPCS,MEASAT 3,2006-056A,EARTH,TEME,UTC,SGP4,2026-05-06T11:43:25.745088,0.99740227,0.0003491,4.6224,76.6517,251.5172,134.2222,0,U,29648,999,4997,0.00000000000000,0.00000107,0.0000000000000,42314.408,1443.75,35951.045,35921.501,PAYLOAD,LARGE,MALA,2006-12-11,TTMTR,,5177655,322309234,0 MEASAT 3,1 29648U 06056A   26126.48849242  .00000107  00000-0  00000+0 0  9991,2 29648   4.6224  76.6517 0003491 251.5172 134.2222  0.99740227 49976,29648,S29648,-,29648,2006-056A,P,P,Measat 3,2006 Dec 11,S29650,MEAS,MY,2006 Dec 12 0840,In Earth orbit,-,2026 May  5 ,    1443.754 ,   35921, ,   35951, ,  4.62 , ,GEO/ID,29648
3.0,GENERATED VIA SPACE-TRACK.ORG API,2026-05-06T15:06:46,18 SPCS,STAR ONE C1,2007-056A,EARTH,TEME,UTC,SGP4,2026-05-06T08:08:15.991008,0.9906938,0.0011676,4.6515,76.3257,209.5641,232.6338,0,U,32293,999,1497,0.00000000000000,-0.00000193,0.0000000000000,42505.214,1453.527,36176.709,36077.45,PAYLOAD,LARGE,BRAZ,2007-11-14,FRGUI,,5177787,322312629,0 STAR ONE C1,1 32293U 07056A   26126.33907397 -.00000193  00000-0  00000+0 0  9998,2 32293   4.6515  76.3257 0011676 209.5641 232.6338  0.99069380 14972,32293,S32293,-,32293,2007-056A,P,P,Star One C1,2007 Nov 14,S32295,STONE,BR,2007 Nov 14 2239,In Earth orbit,-,2026 May  5 ,    1453.529 ,   36077, ,   36176, ,  4.65 , ,GEO/ID,32293
3.0,GENERATED VIA SPACE-TRACK.ORG API,2026-05-06T14:56:52,18 SPCS,TELKOM 2,2005-046A,EARTH,TEME,UTC,SGP4,2026-05-06T11:15:07.554816,0.99143878,0.0006902,4.673,76.4198,217.3094,176.2298,0,U,28902,999,7482,0.00000000000000,0.00000060,0.0000000000000,42483.919,1452.435,36135.106,36076.462,PAYLOAD,LARGE,INDO,2005-11-16,FRGUI,,5177641,322309514,0 TELKOM 2,1 28902U 05046A   26126.46883744  .00000060  00000-0  00000+0 0  9992,2 28902   4.6730  76.4198 0006902 217.3094 176.2298  0.99143878 74826,28902,S28902,-,28902,2005-046A,P,P,Telkom 2,2005 Nov 16,S28904,TELK,ID,2005 Nov 17 0019,In Earth orbit,-,2026 May  4 ,    1452.433 ,   36076, ,   36135, ,  4.67 , ,GEO/ID,28902
3.0,GENERATED VIA SPACE-TRACK.ORG API,2026-05-06T14:46:56,18 SPCS,SYMPHONIE 1,1974-101A,EARTH,TEME,UTC,SGP4,2026-05-06T07:52:08.908032,0.99961707,0.0002658,4.6822,277.5674,50.6426,345.169,0,U,7578,999,11678,0.00000000000000,-0.00000236,0.0000000000000,42251.883,1440.552,35884.978,35862.517,PAYLOAD,LARGE,FGER,1974-12-19,AFETR,,5177156,322297792,0 SYMPHONIE 1,1  7578U 74101A   26126.32788088 -.00000236  00000-0  00000+0 0  9992,2  7578   4.6822 277.5674 0002658  50.6426 345.1690  0.99961707116782,7578,S07578,-,07578,1974-101A,P,P,Symphonie 1,1974 Dec 19,S09330,DLR2/CNES,D,1974 Dec 19 0307,In Earth orbit,-,2026 May  5 ,    1440.547 ,   35862, ,   35885, ,  4.69 , ,GEO/ID,7578
3.0,GENERATED VIA SPACE-TRACK.ORG API,2026-05-06T10:08:52,18 SPCS,EXPRESS AM-33,2008-003A,EARTH,TEME,UTC,SGP4,2026-05-06T02:58:56.020800,1.00202447,0.0012607,4.6943,75.8233,177.7097,38.2493,0,U,32478,999,5331,0.00000000000000,0.00000136,0.0000000000000,42184.181,1437.091,35859.228,35752.864,PAYLOAD,LARGE,CIS,2008-01-28,TTMTR,,5176958,322268614,0 EXPRESS AM-33,1 32478U 08003A   26126.12425950  .00000136  00000-0  00000-0 0  9990,2 32478   4.6943  75.8233 0012607 177.7097  38.2493  1.00202447 53315,32478,S32478,-,32478,2008-003A,P,P,Ekspress AM-33,2008 Jan 28,S32479,KS,RU,2008 Jan 28 0918,In Earth orbit,-,2026 May  5 ,    1437.097 ,   35752, ,   35859, ,  4.69 , ,GEO/ID,32478
3.0,GENERATED VIA SPACE-TRACK.ORG API,2026-05-06T14:46:56,18 SPCS,GOES 1 (SMS-C),1975-100A,EARTH,TEME,UTC,SGP4,2026-05-06T12:51:28.723104,1.00252962,0.0004019,4.7126,277.9941,0.1748,12.3112,0,U,8366,999,18465,0.00000000000000,0.00000053,0.0000000000000,42170.01,1436.367,35808.823,35774.926,PAYLOAD,LARGE,US,1975-10-16,AFETR,,5177168,322297444,0 GOES 1 (SMS-C),1  8366U 75100A   26126.53574911  .00000053  00000-0  00000+0 0  9995,2  8366   4.7126 277.9941 0004019   0.1748  12.3112  1.00252962184659,8366,S08366,-,08366,1975-100A,P,P,GOES 1,1975 Oct 16,S08368,NOAA,US,1975 Oct 16 2305,In Earth orbit,-,2026 May  5 ,    1436.372 ,   35774, ,   35809, ,  4.72 , ,GEO/I,8366
3.0,GENERATED VIA SPACE-TRACK.ORG API,2026-05-06T10:08:52,18 SPCS,DIRECTV 5 (TEMPO 1),2002-023A,EARTH,TEME,UTC,SGP4,2026-05-06T04:56:41.188128,1.0027231,0.00035255,4.7713,75.8199,330.5125,141.809,0,U,27426,999,8770,0.00000000000000,-0.00000049,0.0000000000000,42164.585,1436.089,35801.315,35771.585,PAYLOAD,LARGE,US,2002-05-07,TTMTR,,5176958,322266728,0 DIRECTV 5 (TEMPO 1),1 27426U 02023A   26126.20603227 -.00000049  00000-0  00000-0 0  9991,2 27426   4.7713  75.8199 0003525 330.5125 141.8090  1.00272310 87709,27426,S27426,-,27426,2002-023A,P,P,T5,2002 May  7,S27429,DTVT,US,2002 May  7 2332,In Earth orbit,-,2026 May  4 ,    1436.090 ,   35771, ,   35801, ,  4.77 , ,GEO/I,27426
3.0,GENERATED VIA SPACE-TRACK.ORG API,2026-05-06T14:46:56,18 SPCS,ATS 1,1966-110A,EARTH,TEME,UTC,SGP4,2026-05-06T13:39:06.617376,1.00309954,0.0006211,4.8708,70.303,192.6072,312.2205,0,U,2608,999,13438,0.00000000000000,-0.00000221,0.0000000000000,42154.035,1435.55,35802.082,35749.718,PAYLOAD,LARGE,US,1966-12-07,AFETR,,5177069,322295100,0 ATS 1,1  2608U 66110A   26126.56882659 -.00000221  00000-0  00000+0 0  9991,2  2608   4.8708  70.3030 0006211 192.6072 312.2205  1.00309954134380,2608,S02608,-,02608,1966-110A,P,P,ATS 1,1966 Dec  7,S02609,GSFC,US,1966 Dec  7 0235,In Earth orbit,-,2026 May  5 ,    1435.545 ,   35749, ,   35802, ,  4.87 , ,GEO/I,2608
3.0,GENERATED VIA SPACE-TRACK.ORG API,2026-05-06T10:08:52,18 SPCS,CHINASAT 9A,2017-035A,EARTH,TEME,UTC,SGP4,2026-05-06T04:36:25.843392,0.99791511,0.00057605,4.8773,75.7344,309.1784,273.1027,0,U,42763,999,3323,0.00000000000000,-0.00000045,0.0000000000000,42299.91,1443.009,35946.142,35897.408,PAYLOAD,LARGE,PRC,2017-06-18,XSC,,5176958,322274651,0 CHINASAT 9A,1 42763U 17035A   26126.19196578 -.00000045  00000-0  00000-0 0  9991,2 42763   4.8773  75.7344 0005761 309.1784 273.1027  0.99791511 33239,42763,S42763,-,42763,2017-035A,P,P,Zhongxing 9A,2017 Jun 18,S42764,CHISAE,CN,2017 Jun 18 1636,In Earth orbit,-,2026 May  5 ,    1443.012 ,   35897, ,   35946, ,  4.88 , ,GEO/ID,42763
3.0,GENERATED VIA SPACE-TRACK.ORG API,2026-05-06T14:46:56,18 SPCS,RADUGA 4,1978-073A,EARTH,TEME,UTC,SGP4,2026-05-06T11:29:29.426784,1.00218247,0.0011365,4.8919,279.1094,36.8919,181.2901,0,U,10987,999,11918,0.00000000000000,-0.00000295,0.0000000000000,42179.747,1436.864,35849.55,35753.675,PAYLOAD,MEDIUM,CIS,1978-07-18,TTMTR,,5177205,322298427,0 RADUGA 4,1 10987U 78073A   26126.47881281 -.00000295  00000-0  00000+0 0  9992,2 10987   4.8919 279.1094 0011365  36.8919 181.2901  1.00218247119189,10987,S10987,-,10987,1978-073A,P,P,Raduga,1978 Jul 18,S11941,VVKOV,SU,1978 Jul 19 0436?,In Earth orbit,-,2026 May  5 ,    1436.856 ,   35753, ,   35849, ,  4.89 , ,GEO/ID,10987
3.0,GENERATED VIA SPACE-TRACK.ORG API,2026-05-06T07:56:53,18 SPCS,GALAXY 14,2005-030A,EARTH,TEME,UTC,SGP4,2026-05-05T21:52:26.771808,0.98914312,0.0004863,4.9213,75.5766,330.8069,255.1466,0,U,28790,999,7580,0.00000000000000,-0.00000119,0.0000000000000,42549.626,1455.806,36192.183,36150.8,PAYLOAD,LARGE,US,2005-08-13,TTMTR,,5176815,322256168,0 GALAXY 14,1 28790U 05030A   26125.91142097 -.00000119  00000-0  00000+0 0  9994,2 28790   4.9213  75.5766 0004863 330.8069 255.1466  0.98914312 75809,28790,S28790,-,28790,2005-030A,P,P,Galaxy 14,2005 Aug 13,S28791,SESINTU,US,2005 Aug 14 0105,In Earth orbit,-,2026 May  4 ,    1455.797 ,   36150, ,   36192, ,  4.92 , ,GEO/ID,28790
3.0,GENERATED VIA SPACE-TRACK.ORG API,2026-05-06T14:56:52,18 SPCS,DIRECTV 7S,2004-016A,EARTH,TEME,UTC,SGP4,2026-05-06T09:22:39.438336,0.98917043,0.0003513,5.0244,75.4403,71.7642,146.4513,0,U,28238,999,8038,0.00000000000000,-0.00000095,0.0000000000000,42548.843,1455.765,36185.656,36155.761,PAYLOAD,LARGE,US,2004-05-04,SEAL,,5177630,322308869,0 DIRECTV 7S,1 28238U 04016A   26126.39073424 -.00000095  00000-0  00000+0 0  9997,2 28238   5.0244  75.4403 0003513  71.7642 146.4513  0.98917043 80386,28238,S28238,-,28238,2004-016A,P,P,T7S,2004 May  4,S28239,DTVT,US,2004 May  4 1311,In Earth orbit,-,2026 May  5 ,    1455.759 ,   36155, ,   36185, ,  5.02 , ,GEO/ID,28238
3.0,GENERATED VIA SPACE-TRACK.ORG API,2026-05-06T14:46:56,18 SPCS,NATO 3A,1976-035A,EARTH,TEME,UTC,SGP4,2026-05-06T12:58:17.236128,0.99852975,0.0025273,5.0724,298.5262,328.1027,301.7878,0,U,8808,999,74685,0.00000000000000,-0.00000274,0.0000000000000,42282.55,1442.12,36011.275,35797.554,PAYLOAD,LARGE,NATO,1976-04-22,AFETR,,5177174,322298519,0 NATO 3A,1  8808U 76035A   26126.54047727 -.00000274  00000-0  00000+0 0  9991,2  8808   5.0724 298.5262 0025273 328.1027 301.7878  0.99852975746858,8808,S08808,-,08808,1976-035A,P,P,NATO 3A,1976 Apr 22,S08810,NC3A,I-NATO,1976 Apr 22 2114,In Earth orbit,-,2026 May  5 ,    1442.116 ,   35797, ,   36011, ,  5.08 , ,GEO/ID,8808
